[{"OBJECT_NAME":"GLOBALSTAR M078","OBJECT_ID":"2013-005E","EPOCH":"2026-03-09T17:55:07.351968","MEAN_MOTION":12.6227602,"ECCENTRICITY":0.00014953,"INCLINATION":51.9859,"RA_OF_ASC_NODE":226.4351,"ARG_OF_PERICENTER":72.1047,"MEAN_ANOMALY":287.9982,"EPHEMERIS_TYPE":0,"CLASSIFICATION_TYPE":"U","NORAD_CAT_ID":39076,"ELEMENT_SET_NO":999,"REV_AT_EPOCH":60345,"BSTAR":0.00010718897,"MEAN_MOTION_DOT":-8.5e-7,"MEAN_MOTION_DDOT":0},{"OBJECT_NAME":"SL-14 R\/B","OBJECT_ID":"1988-002G","EPOCH":"2026-03-09T14:04:10.992576","MEAN_MOTION":12.55585069,"ECCENTRICITY":0.0037221,"INCLINATION":82.5955,"RA_OF_ASC_NODE":85.262,"ARG_OF_PERICENTER":340.3496,"MEAN_ANOMALY":137.689,"EPHEMERIS_TYPE":0,"CLASSIFICATION_TYPE":"U","NORAD_CAT_ID":18794,"ELEMENT_SET_NO":999,"REV_AT_EPOCH":74824,"BSTAR":-8.6723e-5,"MEAN_MOTION_DOT":-4.0e-8,"MEAN_MOTION_DDOT":0}]
